NORAD_CAT_ID,OBJECT_NAME,OBJECT_TYPE,EPOCH,MEAN_MOTION,ECCENTRICITY,INCLINATION,RA_OF_ASC_NODE,ARG_OF_PERICENTER,MEAN_ANOMALY,BSTAR,MEAN_MOTION_DOT,MEAN_MOTION_DDOT,TLE_LINE0,TLE_LINE1,TLE_LINE2,SEMIMAJOR_AXIS,PERIOD,APOGEE,PERIGEE,DECAYED
55919.0,STARLINK-5871,PAYLOAD,2023-05-24 22:00:00,14.99299951,0.0003176,70.0013,355.7262,271.4845,82.761,-0.00019636,-2.496e-05,0.0,0 STARLINK-5871,1 55919U 23037F   23144.91667824 -.00002496  00000-0 -19636-3 0  9992,2 55919  70.0013 355.7262 0003176 271.4845  82.7610 14.99299951 11071,6947.195,96.045,571.266,566.854,0.0
55919.0,STARLINK-5871,PAYLOAD,2023-05-25 14:02:17,14.99299138,0.0003026,69.9996,354.0397,268.6111,91.4702,3.2469e-05,3.03e-06,0.0,0 STARLINK-5871,1 55919U 23037F   23145.58492685  .00000303  00000-0  32469-4 0  9990,2 55919  69.9996 354.0397 0003026 268.6111  91.4702 14.99299138 10836,6947.198,96.045,571.165,566.96,0.0
55919.0,STARLINK-5871,PAYLOAD,2023-05-26 00:00:02,14.9929231,0.0003294,70.0014,352.9902,272.8125,167.1121,0.0014818,0.0001808,0.0,0 STARLINK-5871,1 55919U 23037F   23146.00002315  .00018080  00000-0  14818-2 0  9992,2 55919  70.0014 352.9902 0003294 272.8125 167.1121 14.99292310  1301,6947.219,96.045,571.372,566.795,0.0
55919.0,STARLINK-5871,PAYLOAD,2023-05-26 06:00:00,14.99310811,0.000326,70.0014,352.3589,270.9374,77.9069,-0.003016,-0.00036815,0.0,0 STARLINK-5871,1 55919U 23037F   23146.25001157 -.00036815  00000-0 -30160-2 0  9998,2 55919  70.0014 352.3589 0003260 270.9374  77.9069 14.99310811 11277,6947.161,96.044,571.291,566.762,0.0
55919.0,STARLINK-5871,PAYLOAD,2023-05-26 14:00:01,14.99308078,0.0003304,70.0017,351.5174,266.6344,80.8474,0.00090878,0.00011046,0.0,0 STARLINK-5871,1 55919U 23037F   23146.58334491  .00011046  00000-0  90878-3 0  9994,2 55919  70.0017 351.5174 0003304 266.6344  80.8474 14.99308078  1307,6947.17,96.044,571.33,566.74,0.0
55919.0,STARLINK-5871,PAYLOAD,2023-05-26 22:00:01,14.99291142,0.000327,70.0016,350.6756,272.5468,73.6555,0.0015048,0.00018363,0.0,0 STARLINK-5871,1 55919U 23037F   23146.91668981  .00018363  00000-0  15048-2 0  9999,2 55919  70.0016 350.6756 0003270 272.5468  73.6555 14.99291142 11378,6947.222,96.045,571.359,566.815,0.0
55919.0,STARLINK-5871,PAYLOAD,2023-05-27 20:28:44,14.99303071,0.0003054,69.9998,348.3117,267.4813,92.5997,7.3523e-06,-4e-08,0.0,0 STARLINK-5871,1 55919U 23037F   23147.85329533 -.00000004  00000-0  73523-5 0  9999,2 55919  69.9998 348.3117 0003054 267.4813  92.5997 14.99303071 11517,6947.185,96.045,571.172,566.929,0.0
55919.0,STARLINK-5871,PAYLOAD,2023-05-27 22:04:49,14.9930316,0.0003051,69.9998,348.1432,267.5965,92.4845,8.6398e-06,1.2e-07,0.0,0 STARLINK-5871,1 55919U 23037F   23147.92001193  .00000012  00000-0  86398-5 0  9998,2 55919  69.9998 348.1432 0003051 267.5965  92.4845 14.99303160 11184,6947.185,96.045,571.17,566.931,0.0
55919.0,STARLINK-5871,PAYLOAD,2023-05-27 23:40:53,14.993032,0.0003053,69.9998,347.9747,267.7268,92.3542,8.8971e-06,1.5e-07,0.0,0 STARLINK-5871,1 55919U 23037F   23147.98672859  .00000015  00000-0  88971-5 0  9999,2 55919  69.9998 347.9747 0003053 267.7268  92.3542 14.99303200 11199,6947.185,96.045,571.171,566.929,0.0
55919.0,STARLINK-5871,PAYLOAD,2023-05-28 20:29:49,14.99301803,0.0003102,69.9996,345.7839,270.7188,89.3616,2.6203e-05,2.27e-06,0.0,0 STARLINK-5871,1 55919U 23037F   23148.85404645  .00000227  00000-0  26203-4 0  9996,2 55919  69.9996 345.7839 0003102 270.7188  89.3616 14.99301803 11325,6947.189,96.045,571.209,566.899,0.0
55919.0,STARLINK-5871,PAYLOAD,2023-05-28 23:41:58,14.99303045,0.0003092,69.9996,345.447,270.5295,89.551,3.8433e-05,3.76e-06,0.0,0 STARLINK-5871,1 55919U 23037F   23148.98747868  .00000376  00000-0  38433-4 0  9990,2 55919  69.9996 345.4470 0003092 270.5295  89.5510 14.99303045 11682,6947.185,96.045,571.199,566.902,0.0
55919.0,STARLINK-5871,PAYLOAD,2023-05-29 14:06:37,14.99299399,0.0003052,69.9997,343.9307,270.6493,89.4316,-3.8579e-05,-5.66e-06,0.0,0 STARLINK-5871,1 55919U 23037F   23149.58793408 -.00000566  00000-0 -38579-4 0  9992,2 55919  69.9997 343.9307 0003052 270.6493  89.4316 14.99299399 11434,6947.197,96.045,571.182,566.941,0.0
55919.0,STARLINK-5871,PAYLOAD,2023-05-29 17:18:46,14.99298925,0.0003063,69.9997,343.5937,270.5162,89.5647,-4.2321e-05,-6.12e-06,0.0,0 STARLINK-5871,1 55919U 23037F   23149.72136808 -.00000612  00000-0 -42321-4 0  9995,2 55919  69.9997 343.5937 0003063 270.5162  89.5647 14.99298925 11794,6947.198,96.045,571.191,566.935,0.0
55919.0,STARLINK-5871,PAYLOAD,2023-05-29 20:30:54,14.99298736,0.0003068,69.9997,343.2568,270.755,89.3258,-4.2945e-05,-6.19e-06,0.0,0 STARLINK-5871,1 55919U 23037F   23149.85480191 -.00000619  00000-0 -42945-4 0  9995,2 55919  69.9997 343.2568 0003068 270.7550  89.3258 14.99298736 11470,6947.199,96.045,571.195,566.932,0.0
55919.0,STARLINK-5871,PAYLOAD,2023-05-30 06:07:20,14.99300274,0.0003079,69.9998,342.2459,271.116,88.9647,-9.9984e-06,-2.16e-06,0.0,0 STARLINK-5871,1 55919U 23037F   23150.25510090 -.00000216  00000-0 -99984-5 0  9992,2 55919  69.9998 342.2459 0003079 271.1160  88.9647 14.99300274 11538,6947.194,96.045,571.198,566.92,0.0
55919.0,STARLINK-5871,PAYLOAD,2023-05-30 18:55:54,14.99304786,0.0003107,69.9996,340.8981,270.9254,89.155,3.0332e-05,2.77e-06,0.0,0 STARLINK-5871,1 55919U 23037F   23150.78883056  .00000277  00000-0  30332-4 0  9991,2 55919  69.9996 340.8981 0003107 270.9254  89.1550 14.99304786 11957,6947.18,96.045,571.204,566.887,0.0
55919.0,STARLINK-5871,PAYLOAD,2023-05-30 20:31:59,14.99303947,0.0003127,69.9996,340.7296,270.7985,89.2816,2.0126e-05,1.52e-06,0.0,0 STARLINK-5871,1 55919U 23037F   23150.85554798  .00000152  00000-0  20126-4 0  9999,2 55919  69.9996 340.7296 0003127 270.7985  89.2816 14.99303947 11624,6947.183,96.045,571.22,566.875,0.0
55919.0,STARLINK-5871,PAYLOAD,2023-05-31 14:08:47,14.99294801,0.0003138,69.9996,338.8761,270.862,89.218,-8.1918e-06,-1.94e-06,0.0,0 STARLINK-5871,1 55919U 23037F   23151.58943904 -.00000194  00000-0 -81918-5 0  9996,2 55919  69.9996 338.8761 0003138 270.8620  89.2180 14.99294801 11732,6947.211,96.045,571.256,566.896,0.0
55919.0,STARLINK-5871,PAYLOAD,2023-05-31 18:57:00,14.99297321,0.0003142,69.9994,338.3705,270.3785,89.7014,8.8238e-06,1.4e-07,0.0,0 STARLINK-5871,1 55919U 23037F   23151.78958776  .00000014  00000-0  88238-5 0  9992,2 55919  69.9994 338.3705 0003142 270.3785  89.7014 14.99297321 12108,6947.203,96.045,571.251,566.885,0.0
55919.0,STARLINK-5871,PAYLOAD,2023-05-31 20:33:04,14.99297318,0.000314,69.9994,338.202,270.3948,89.6852,8.3163e-06,8e-08,0.0,0 STARLINK-5871,1 55919U 23037F   23151.85630467  .00000008  00000-0  83163-5 0  9999,2 55919  69.9994 338.2020 0003140 270.3948  89.6852 14.99297318 11773,6947.203,96.045,571.25,566.887,0.0
55919.0,STARLINK-5871,PAYLOAD,2023-06-01 10:57:43,14.99300437,0.0003144,69.9992,336.6856,270.298,89.782,5.6014e-06,-2.5e-07,0.0,0 STARLINK-5871,1 55919U 23037F   23152.45675433 -.00000025  00000-0  56014-5 0  9993,2 55919  69.9992 336.6856 0003144 270.2980  89.7820 14.99300437 11862,6947.194,96.045,571.243,566.874,0.0
55919.0,STARLINK-5871,PAYLOAD,2023-06-02 10:58:48,14.99297747,0.000307,69.9992,334.1582,269.9895,90.0913,3.2368e-05,3.02e-06,0.0,0 STARLINK-5871,1 55919U 23037F   23153.45750579  .00000302  00000-0  32368-4 0  9991,2 55919  69.9992 334.1582 0003070 269.9895  90.0913 14.99297747 12351,6947.202,96.045,571.2,566.934,0.0
55919.0,STARLINK-5871,PAYLOAD,2023-06-02 12:34:52,14.9929754,0.0003069,69.9992,333.9897,269.9516,90.1292,2.9226e-05,2.64e-06,0.0,0 STARLINK-5871,1 55919U 23037F   23153.52422290  .00000264  00000-0  29226-4 0  9991,2 55919  69.9992 333.9897 0003069 269.9516  90.1292 14.99297540 12021,6947.202,96.045,571.2,566.935,0.0
55919.0,STARLINK-5871,PAYLOAD,2023-06-02 20:35:14,14.99299533,0.0003094,69.9992,333.1473,269.8036,90.2769,2.5047e-05,2.13e-06,0.0,0 STARLINK-5871,1 55919U 23037F   23153.85780597  .00000213  00000-0  25047-4 0  9995,2 55919  69.9992 333.1473 0003094 269.8036  90.2769 14.99299533 12076,6947.196,96.045,571.211,566.912,0.0
55919.0,STARLINK-5871,PAYLOAD,2023-06-03 11:00:24,14.98950183,0.0002394,69.9993,331.6323,253.2588,106.8308,-0.0036279,-0.00043807,0.0,0 STARLINK-5871,1 55919U 23037F   23154.45861811 -.00043807  00000-0 -36279-2 0  9996,2 55919  69.9993 331.6323 0002394 253.2588 106.8308 14.98950183 12500,6948.276,96.067,571.804,568.477,0.0
55919.0,STARLINK-5871,PAYLOAD,2023-06-03 14:12:48,14.98785777,0.0003221,69.999,331.2959,259.2011,100.8786,-0.0052818,-0.00063293,0.0,0 STARLINK-5871,1 55919U 23037F   23154.59222759 -.00063293  00000-0 -52818-2 0  9991,2 55919  69.9990 331.2959 0003221 259.2011 100.8786 14.98785777 12188,6948.784,96.078,572.887,568.411,0.0
55919.0,STARLINK-5871,PAYLOAD,2023-06-03 19:01:07,14.98763746,0.0003377,69.9992,330.7911,261.9028,98.1748,-0.0052577,-0.00062972,0.0,0 STARLINK-5871,1 55919U 23037F   23154.79245237 -.00062972  00000-0 -52577-2 0  9994,2 55919  69.9992 330.7911 0003377 261.9028  98.1748 14.98763746 12552,6948.852,96.079,573.064,568.37,0.0
55919.0,STARLINK-5871,PAYLOAD,2023-06-03 20:37:14,14.98756351,0.000347,69.9991,330.6227,265.7647,94.3116,-0.0052461,-0.00062823,0.0,0 STARLINK-5871,1 55919U 23037F   23154.85919528 -.00062823  00000-0 -52461-2 0  9999,2 55919  69.9991 330.6227 0003470 265.7647  94.3116 14.98756351 12228,6948.875,96.08,573.151,568.328,0.0
55919.0,STARLINK-5871,PAYLOAD,2023-06-04 04:37:48,14.98715407,0.0003474,69.9989,329.7807,268.8485,91.2276,-0.0052093,-0.00062321,0.0,0 STARLINK-5871,1 55919U 23037F   23155.19292088 -.00062321  00000-0 -52093-2 0  9996,2 55919  69.9989 329.7807 0003474 268.8485  91.2276 14.98715407 12619,6949.001,96.082,573.28,568.452,0.0
55919.0,STARLINK-5871,PAYLOAD,2023-06-04 14:14:29,14.98672348,0.0003557,69.9985,328.7706,264.9549,95.1204,-0.0050081,-0.00059872,0.0,0 STARLINK-5871,1 55919U 23037F   23155.59339884 -.00059872  00000-0 -50081-2 0  9998,2 55919  69.9985 328.7706 0003557 264.9549  95.1204 14.98672348 12331,6949.134,96.085,573.471,568.528,0.0
